NORAD_CAT_ID,OBJECT_NAME,OBJECT_TYPE,EPOCH,MEAN_MOTION,ECCENTRICITY,INCLINATION,RA_OF_ASC_NODE,ARG_OF_PERICENTER,MEAN_ANOMALY,BSTAR,MEAN_MOTION_DOT,MEAN_MOTION_DDOT,TLE_LINE0,TLE_LINE1,TLE_LINE2,SEMIMAJOR_AXIS,PERIOD,APOGEE,PERIGEE,DECAYED
54078.0,STARLINK-5138,PAYLOAD,2022-11-05 22:00:01,15.73202354,0.0002559,53.2156,67.1927,18.8679,79.7951,-5.362600000000001e-05,-8.143e-05,0.0,0 STARLINK-5138,1 54078U 22136AD  22309.91668981 -.00008143  00000-0 -53626-4 0  9996,2 54078  53.2156  67.1927 0002559  18.8679  79.7951 15.73202354  1304,6727.888000000001,91.533,351.475,348.032,0.0
54078.0,STARLINK-5138,PAYLOAD,2022-11-06 14:00:01,15.73242228,0.0002557,53.2162,63.8941,15.4198,261.0013,-0.00032316,-0.00045819,0.0,0 STARLINK-5138,1 54078U 22136AD  22310.58334491 -.00045819  00000-0 -32316-3 0  9990,2 54078  53.2162  63.8941 0002557  15.4198 261.0013 15.73242228  1306,6727.775,91.531,351.36,347.9190000000001,0.0
54078.0,STARLINK-5138,PAYLOAD,2022-11-07 00:00:00,15.7320239,0.0002648999999999,53.2165,61.8314,15.0369,102.5825,-0.00021378,-0.00030524,0.0,0 STARLINK-5138,1 54078U 22136AD  22311.00001157 -.00030524  00000-0 -21378-3 0  9991,2 54078  53.2165  61.8314 0002649  15.0369 102.5825 15.73202390  3240,6727.888000000001,91.533,351.536,347.971,0.0
54078.0,STARLINK-5138,PAYLOAD,2022-11-07 14:00:01,15.7317777,0.0002982,53.2163,58.9458,22.7037,160.5344,0.00043178,0.00060365,0.0,0 STARLINK-5138,1 54078U 22136AD  22311.58334491  .00060365  00000-0  43178-3 0  9990,2 54078  53.2163  58.9458 0002982  22.7037 160.5344 15.73177770  3334,6727.959,91.534,351.83,347.81699999999995,0.0
54078.0,STARLINK-5138,PAYLOAD,2022-11-07 22:00:00,15.73271586,0.000291,53.2159,57.29600000000001,19.623,252.5312,-0.00053345,-0.00075072,0.0,0 STARLINK-5138,1 54078U 22136AD  22311.91667824 -.00075072  00000-0 -53345-3 0  9996,2 54078  53.2159  57.2960 0002910  19.6230 252.5312 15.73271586  1302,6727.691,91.529,351.514,347.598,0.0
54078.0,STARLINK-5138,PAYLOAD,2022-11-08 00:00:02,15.732977900000002,0.0002851,53.2162,56.883,19.1639,5.332000000000002,-0.00020833,-0.00029886,0.0,0 STARLINK-5138,1 54078U 22136AD  22312.00002315 -.00029886  00000-0 -20833-3 0  9993,2 54078  53.2162  56.8830 0002851  19.1639   5.3320 15.73297790  3400,6727.616,91.527,351.399,347.56300000000016,0.0
54078.0,STARLINK-5138,PAYLOAD,2022-11-08 14:00:01,15.73304407,0.0002973,53.2164,53.9973,13.6124,76.5981,-0.0001879,-0.00027034,0.0,0 STARLINK-5138,1 54078U 22136AD  22312.58334491 -.00027034  00000-0 -18790-3 0  9991,2 54078  53.2164  53.9973 0002973  13.6124  76.5981 15.73304407  1305,6727.598000000001,91.527,351.463,347.462,0.0
54078.0,STARLINK-5138,PAYLOAD,2022-11-08 22:00:00,15.7334335,0.0002978,53.2166,52.3472,11.7453,167.5032,-0.0010838,-0.00150999,0.0,0 STARLINK-5138,1 54078U 22136AD  22312.91667824 -.00150999  00000-0 -10838-2 0  9998,2 54078  53.2166  52.3472 0002978  11.7453 167.5032 15.73343350  3549,6727.486999999999,91.525,351.355,347.348,0.0
54078.0,STARLINK-5138,PAYLOAD,2022-11-09 14:00:01,15.73056659,0.0003299,53.2163,49.0489,18.6623,338.5354,0.00056413,0.00078826,0.0,0 STARLINK-5138,1 54078U 22136AD  22313.58334491  .00078826  00000-0  56413-3 0  9999,2 54078  53.2163  49.0489 0003299  18.6623 338.5354 15.73056659  1301,6728.304,91.542,352.389,347.949,0.0
54078.0,STARLINK-5138,PAYLOAD,2022-11-09 22:00:01,15.73151741,0.0003227,53.2159,47.3989,16.1666,69.8636,-0.00053318,-0.00074661,0.0,0 STARLINK-5138,1 54078U 22136AD  22313.91668981 -.00074661  00000-0 -53318-3 0  9996,2 54078  53.2159  47.3989 0003227  16.1666  69.8636 15.73151741  3704,6728.033,91.536,352.069,347.727,0.0
54078.0,STARLINK-5138,PAYLOAD,2022-11-10 14:00:01,15.7311533,0.0003379,53.2163,44.1016,15.7865,247.8186,0.00050501,0.00070609,0.0,0 STARLINK-5138,1 54078U 22136AD  22314.58334491  .00070609  00000-0  50501-3 0  9993,2 54078  53.2163  44.1016 0003379  15.7865 247.8186 15.73115330  1305,6728.137,91.538,352.275,347.728,0.0
54078.0,STARLINK-5138,PAYLOAD,2022-11-10 22:00:00,15.73181133,0.0003347,53.2164,42.4513,15.6449,336.8088,0.00018315,0.00025144,0.0,0 STARLINK-5138,1 54078U 22136AD  22314.91667824  .00025144  00000-0  18315-3 0  9990,2 54078  53.2164  42.4513 0003347  15.6449 336.8088 15.73181133  3868,6727.949000000001,91.534,352.066,347.56199999999984,0.0
54078.0,STARLINK-5138,PAYLOAD,2022-11-11 14:00:01,15.73274252,0.0003566,53.2161,39.1534,16.7919,153.5469,-9.0584e-05,-0.00013362,0.0,0 STARLINK-5138,1 54078U 22136AD  22315.58334491 -.00013362  00000-0 -90584-4 0  9995,2 54078  53.2161  39.1534 0003566  16.7919 153.5469 15.73274252  1307,6727.683000000001,91.529,351.9480000000001,347.149,0.0
54078.0,STARLINK-5138,PAYLOAD,2022-11-11 16:00:01,15.73271107,0.0003582,53.2159,38.7412,15.4413,267.2173,-6.8889e-05,-0.00010314,0.0,0 STARLINK-5138,1 54078U 22136AD  22315.66668981 -.00010314  00000-0 -68889-4 0  9995,2 54078  53.2159  38.7412 0003582  15.4413 267.2173 15.73271107  3984,6727.691999999999,91.529,351.967,347.148,0.0
54078.0,STARLINK-5138,PAYLOAD,2022-11-11 22:00:00,15.7330916,0.0003517,53.2169,37.4966,19.5285,239.8418,-0.0011577999999999,-0.00160868,0.0,0 STARLINK-5138,1 54078U 22136AD  22315.91667824 -.00160868  00000-0 -11578-2 0  9999,2 54078  53.2169  37.4966 0003517  19.5285 239.8418 15.73309160  1307,6727.584,91.527,351.815,347.083,0.0
54078.0,STARLINK-5138,PAYLOAD,2022-11-12 14:00:01,15.73198776,0.0003495,53.216,34.2045,5.7502,71.6008,-6.5955e-05,-9.872e-05,0.0,0 STARLINK-5138,1 54078U 22136AD  22316.58334491 -.00009872  00000-0 -65955-4 0  9991,2 54078  53.2160  34.2045 0003495   5.7502  71.6008 15.73198776  4124,6727.899,91.533,352.115,347.412,0.0
54078.0,STARLINK-5138,PAYLOAD,2022-11-12 22:00:00,15.73213849,0.0003521,53.216,32.5536,6.4109,159.8607,-0.00063768,-0.00089263,0.0,0 STARLINK-5138,1 54078U 22136AD  22316.91667824 -.00089263  00000-0 -63768-3 0  9998,2 54078  53.2160  32.5536 0003521   6.4109 159.8607 15.73213849  1301,6727.856,91.532,352.09,347.352,0.0
54078.0,STARLINK-5138,PAYLOAD,2022-11-13 14:00:01,15.73139509,0.0003751,53.2156,29.2559,8.9204,335.1776,0.00040033,0.00055807,0.0,0 STARLINK-5138,1 54078U 22136AD  22317.58334491  .00055807  00000-0  40033-3 0  9998,2 54078  53.2156  29.2559 0003751   8.9204 335.1776 15.73139509  1308,6728.068,91.537,352.456,347.409,0.0
54078.0,STARLINK-5138,PAYLOAD,2022-11-13 22:00:00,15.73183065,0.0003597,53.2153,27.605,8.4793,64.4943,0.00027024,0.00037456,0.0,0 STARLINK-5138,1 54078U 22136AD  22317.91667824  .00037456  00000-0  27024-3 0  9999,2 54078  53.2153  27.6050 0003597   8.4793  64.4943 15.73183065  1303,6727.943,91.534,352.228,347.38800000000015,0.0
54078.0,STARLINK-5138,PAYLOAD,2022-11-14 14:00:01,15.73176399,0.0003947,53.2157,24.3067,13.3524,237.5046,0.00067023,0.00094439,0.0,0 STARLINK-5138,1 54078U 22136AD  22318.58334491  .00094439  00000-0  67023-3 0  9991,2 54078  53.2157  24.3067 0003947  13.3524 237.5046 15.73176399  4442,6727.962,91.535,352.483,347.172,0.0
54078.0,STARLINK-5138,PAYLOAD,2022-11-14 22:00:00,15.73255298,0.0003725,53.2165,22.6527,11.5991,328.1995,-0.00051203,-0.00072073,0.0,0 STARLINK-5138,1 54078U 22136AD  22318.91667824 -.00072073  00000-0 -51203-3 0  9992,2 54078  53.2165  22.6527 0003725  11.5991 328.1995 15.73255298  1303,6727.738,91.53,352.1090000000001,347.096,0.0
54078.0,STARLINK-5138,PAYLOAD,2022-11-15 08:00:01,15.73185925,0.0003797,53.2164,20.5926,10.1973,170.8838,0.00018021,0.00024736,0.0,0 STARLINK-5138,1 54078U 22136AD  22319.33335648  .00024736  00000-0  18021-3 0  9997,2 54078  53.2164  20.5926 0003797  10.1973 170.8838 15.73185925  4553,6727.935,91.534,352.355,347.246,0.0
54078.0,STARLINK-5138,PAYLOAD,2022-11-15 14:00:01,15.73183887,0.0004024,53.2155,19.3586,10.3797,147.3254,0.00067821,0.00095616,0.0,0 STARLINK-5138,1 54078U 22136AD  22319.58334491  .00095616  00000-0  67821-3 0  9996,2 54078  53.2155  19.3586 0004024  10.3797 147.3254 15.73183887  1307,6727.941,91.534,352.51300000000015,347.099,0.0
54078.0,STARLINK-5138,PAYLOAD,2022-11-15 22:00:00,15.73258108,0.0003797,53.2152,17.7073,9.2972,237.359,-0.00047981,-0.00067621,0.0,0 STARLINK-5138,1 54078U 22136AD  22319.91667824 -.00067621  00000-0 -47981-3 0  9994,2 54078  53.2152  17.7073 0003797   9.2972 237.3590 15.73258108  1307,6727.73,91.53,352.149,347.04,0.0
54078.0,STARLINK-5138,PAYLOAD,2022-11-16 14:00:01,15.73277571,0.0004015,53.2163,14.4068,6.1677,58.4658,-0.0015212,-0.00209711,0.0,0 STARLINK-5138,1 54078U 22136AD  22320.58335648 -.00209711  00000-0 -15212-2 0  9994,2 54078  53.2163  14.4068 0004015   6.1677  58.4658 15.73277571  4753,6727.674,91.529,352.24,346.838,0.0
54078.0,STARLINK-5138,PAYLOAD,2022-11-16 20:00:01,15.73048357,0.0003763,53.2169,13.1661,7.3874,33.9287,0.0013579,0.00193179,0.0,0 STARLINK-5138,1 54078U 22136AD  22320.83334491  .00193179  00000-0  13579-2 0  9999,2 54078  53.2169  13.1661 0003763   7.3874  33.9287 15.73048357  4793,6728.328,91.542,352.724,347.661,0.0
54078.0,STARLINK-5138,PAYLOAD,2022-11-16 22:00:08,15.73051032,0.0003701,53.2174,12.7522,7.1527,146.8277,0.001657,0.00237135,0.0,0 STARLINK-5138,1 54078U 22136AD  22320.91675926  .00237135  00000-0  16570-2 0  9994,2 54078  53.2174  12.7522 0003701   7.1527 146.8277 15.73051032  1306,6728.32,91.542,352.675,347.695,0.0
54078.0,STARLINK-5138,PAYLOAD,2022-11-17 14:00:01,15.73160434,0.0004272,53.2154,9.4612,10.4022,320.9642,0.00059617,0.00083776,0.0,0 STARLINK-5138,1 54078U 22136AD  22321.58334491  .00083776  00000-0  59617-3 0  9997,2 54078  53.2154   9.4612 0004272  10.4022 320.9642 15.73160434  4916,6728.0080000000025,91.535,352.747,346.999,0.0
54078.0,STARLINK-5138,PAYLOAD,2022-11-17 22:00:00,15.73229254,0.0004003,53.2153,7.8098,10.9475,49.3431,-7.4116e-05,-0.00011031,0.0,0 STARLINK-5138,1 54078U 22136AD  22321.91667824 -.00011031  00000-0 -74116-4 0  9992,2 54078  53.2153   7.8098 0004003  10.9475  49.3431 15.73229254  1308,6727.812,91.531,352.37,346.9840000000001,0.0
